[{"OBJECT_NAME":"STARLINK-31704","OBJECT_ID":"2024-076Y","EPOCH":"2026-03-09T22:00:01.999584","MEAN_MOTION":15.30892355,"ECCENTRICITY":0.00079744,"INCLINATION":42.9978,"RA_OF_ASC_NODE":323.2923,"ARG_OF_PERICENTER":240.5046,"MEAN_ANOMALY":200.4144,"EPHEMERIS_TYPE":0,"CLASSIFICATION_TYPE":"U","NORAD_CAT_ID":59586,"ELEMENT_SET_NO":999,"REV_AT_EPOCH":581,"BSTAR":0.0024766131,"MEAN_MOTION_DOT":0.00076042,"MEAN_MOTION_DDOT":0},{"OBJECT_NAME":"STARLINK-35116","OBJECT_ID":"2025-235W","EPOCH":"2026-03-09T21:22:06.443040","MEAN_MOTION":15.30205087,"ECCENTRICITY":6.066e-5,"INCLINATION":53.1593,"RA_OF_ASC_NODE":244.2307,"ARG_OF_PERICENTER":46.7534,"MEAN_ANOMALY":313.3517,"EPHEMERIS_TYPE":0,"CLASSIFICATION_TYPE":"U","NORAD_CAT_ID":66078,"ELEMENT_SET_NO":999,"REV_AT_EPOCH":2295,"BSTAR":0.0012607089,"MEAN_MOTION_DOT":0.00037172,"MEAN_MOTION_DDOT":0}]
